H1 CPF  1  HTS 2022  8  3 12  7151 larets           NONE
H2  0304206 5557    27944 2022 08 03  0  0  0 2022 08 08  0  0  0   180 1 1  0 0 0
H5  0.0560 
H9 
10 0 59796  70920.00000  0     213956.783    4684230.744    5270194.445
10 0 59796  71100.00000  0     501300.024    3596578.600    6044216.286
10 0 59796  71280.00000  0     740019.346    2371012.156    6596466.084
10 0 59796  71460.00000  0     918398.799    1053588.169    6906636.302
10 0 59796  71640.00000  0    1028171.179    -306013.873    6963271.838
10 0 59796  71820.00000  0    1064889.029   -1656378.699    6764186.191
10 0 59796  72000.00000  0    1028108.633   -2946313.968    6316558.336
10 0 59796  72180.00000  0     921378.996   -4126816.657    5636697.441
10 0 59796  72360.00000  0     752035.834   -5152970.437    4749474.027
10 0 59796  72540.00000  0     530812.888   -5985704.787    3687440.298
10 0 59796  72720.00000  0     271281.217   -6593356.078    2489650.207
10 0 59796  72900.00000  0     -10861.504   -6952944.125    1200207.161
10 0 59796  73080.00000  0    -298615.853   -7051098.701    -133400.492
10 0 59796  73260.00000  0    -574577.441   -6884584.261   -1462115.885
10 0 59796  73440.00000  0    -821853.002   -6460381.006   -2737189.109
10 0 59796  73620.00000  0   -1024945.801   -5795335.434   -3912015.677
10 0 59796  73800.00000  0   -1170566.575   -4915407.002   -4943862.568
10 0 59796  73980.00000  0   -1248327.686   -3854558.035   -5795403.976
10 0 59796  74160.00000  0   -1251289.603   -2653361.900   -6436014.884
10 0 59796  74340.00000  0   -1176339.025   -1357399.627   -6842793.758
10 0 59796  74520.00000  0   -1024388.777     -15516.510   -7001295.204
10 0 59796  74700.00000  0    -800395.797    1321994.832   -6905972.044
10 0 59796  74880.00000  0    -513197.049    2605228.968   -6560331.249
10 0 59796  75060.00000  0    -175171.705    3786474.373   -5976810.860
10 0 59796  75240.00000  0     198264.531    4821951.123   -5176377.146
10 0 59796  75420.00000  0     589317.840    5673425.327   -4187839.053
10 0 59796  75600.00000  0     978605.371    6309649.146   -3046886.686
10 0 59796  75780.00000  0    1346047.567    6707564.512   -1794865.993
10 0 59796  75960.00000  0    1671826.630    6853213.550    -477318.755
10 0 59796  76140.00000  0    1937366.602    6742299.699     857669.988
10 0 59796  76320.00000  0    2126282.259    6380357.789    2161249.346
10 0 59796  76500.00000  0    2225247.266    5782522.396    3385626.332
10 0 59796  76680.00000  0    2224737.125    4972902.435    4485860.209
10 0 59796  76860.00000  0    2119604.205    3983585.653    5421551.454
10 0 59796  77040.00000  0    1909452.762    2853318.804    6158341.147
10 0 59796  77220.00000  0    1598801.510    1625949.423    6669164.302
10 0 59796  77400.00000  0    1197026.131     348691.298    6935231.054
10 0 59796  77580.00000  0     718082.402    -929713.275    6946699.669
10 0 59796  77760.00000  0     180020.519   -2160865.205    6703039.642
10 0 59796  77940.00000  0    -395698.440   -3298560.178    6213068.275
10 0 59796  78120.00000  0    -985058.157   -4300549.107    5494650.210
10 0 59796  78300.00000  0   -1562480.508   -5130140.192    4574076.533
10 0 59796  78480.00000  0   -2101931.576   -5757601.470    3485138.780
10 0 59796  78660.00000  0   -2578093.299   -6161297.179    2267894.329
10 0 59796  78840.00000  0   -2967539.893   -6328487.433     967168.764
10 0 59796  79020.00000  0   -3249857.593   -6255755.300    -369142.681
10 0 59796  79200.00000  0   -3408648.652   -5949037.048   -1691903.292
10 0 59796  79380.00000  0   -3432366.577   -5423251.405   -2952608.422
10 0 59796  79560.00000  0   -3314938.522   -4701549.734   -4105214.453
10 0 59796  79740.00000  0   -3056142.900   -3814236.487   -5107835.668
10 0 59796  79920.00000  0   -2661732.770   -2797432.586   -5924239.106
10 0 59796  80100.00000  0   -2143310.308   -1691555.770   -6525093.218
10 0 59796  80280.00000  0   -1517962.014    -539690.257   -6888941.291
10 0 59796  80460.00000  0    -807676.656     614084.936   -7002880.637
10 0 59796  80640.00000  0     -38573.777    1726345.575   -6862952.460
10 0 59796  80820.00000  0     760035.634    2755906.544   -6474250.964
10 0 59796  81000.00000  0    1556733.943    3665305.017   -5850754.261
10 0 59796  81180.00000  0    2319200.017    4422142.185   -5014868.743
10 0 59796  81360.00000  0    3015491.331    5000241.244   -3996694.462
10 0 59796  81540.00000  0    3615363.717    5380585.512   -2833015.469
10 0 59796  81720.00000  0    4091578.015    5551992.291   -1566030.883
10 0 59796  81900.00000  0    4421133.379    5511484.505    -241856.715
10 0 59796  82080.00000  0    4586362.037    5264333.902    1091152.904
10 0 59796  82260.00000  0    4575824.185    4823761.325    2384196.291
10 0 59796  82440.00000  0    4384956.029    4210311.214    3589849.666
10 0 59796  82620.00000  0    4016429.849    3450919.736    4663853.202
10 0 59796  82800.00000  0    3480206.216    2577726.679    5566766.013
10 0 59796  82980.00000  0    2793275.186    1626695.006    6265429.961
10 0 59796  83160.00000  0    1979101.416     636105.434    6734177.495
10 0 59796  83340.00000  0    1066805.078    -355001.218    6955755.960
10 0 59796  83520.00000  0      90105.918   -1308370.608    6921951.608
10 0 59796  83700.00000  0    -913934.279   -2188024.251    6633894.039
10 0 59796  83880.00000  0   -1906327.227   -2961633.440    6102027.838
10 0 59796  84060.00000  0   -2847677.185   -3601727.426    5345758.813
10 0 59796  84240.00000  0   -3699765.938   -4086703.625    4392786.338
10 0 59796  84420.00000  0   -4427144.422   -4401595.442    3278110.392
10 0 59796  84600.00000  0   -4998645.530   -4538559.331    2042745.916
10 0 59796  84780.00000  0   -5388753.733   -4497061.122     732190.097
10 0 59796  84960.00000  0   -5578759.759   -4283743.856    -605304.876
10 0 59796  85140.00000  0   -5557635.320   -3911982.441   -1920575.599
10 0 59796  85320.00000  0   -5322576.956   -3401147.396   -3165423.143
10 0 59796  85500.00000  0   -4879191.592   -2775622.762   -4294422.256
10 0 59796  85680.00000  0   -4241330.077   -2063641.854   -5266584.766
10 0 59796  85860.00000  0   -3430587.090   -1296005.153   -6046815.859
10 0 59796  86040.00000  0   -2475502.698    -504745.191   -6607115.797
10 0 59796  86220.00000  0   -1410510.155     278198.987   -6927499.702
10 0 59797      0.00000  0    -274678.784    1022242.084   -6996624.025
10 0 59797    180.00000  0     889697.677    1699309.458   -6812127.105
10 0 59797    360.00000  0    2038632.936    2284861.132   -6380692.222
10 0 59797    540.00000  0    3128067.312    2758759.546   -5717827.132
10 0 59797    720.00000  0    4115521.630    3105953.580   -4847356.673
10 0 59797    900.00000  0    4961738.381    3316960.548   -3800640.815
10 0 59797   1080.00000  0    5632257.110    3388127.866   -2615517.591
10 0 59797   1260.00000  0    6098852.159    3321659.494   -1334991.415
10 0 59797   1440.00000  0    6340767.270    3125399.561      -5699.498
10 0 59797   1620.00000  0    6345676.517    2812373.186    1323791.160
10 0 59797   1800.00000  0    6110314.409    2400103.502    2604786.451
10 0 59797   1980.00000  0    5640736.882    1909741.284    3790291.540
10 0 59797   2160.00000  0    4952190.662    1365045.035    4836779.688
10 0 59797   2340.00000  0    4068597.849     791267.247    5705817.325
10 0 59797   2520.00000  0    3021688.287     214004.332    6365485.780
10 0 59797   2700.00000  0    1849815.916    -341932.841    6791543.243
10 0 59797   2880.00000  0     596524.772    -853575.846    6968298.460
10 0 59797   3060.00000  0    -691091.191   -1300747.276    6889179.342
10 0 59797   3240.00000  0   -1964172.803   -1666862.969    6556974.057
10 0 59797   3420.00000  0   -3173959.088   -1939556.877    5983744.548
10 0 59797   3600.00000  0   -4273674.204   -2111108.490    5190424.404
10 0 59797   3780.00000  0   -5220383.379   -2178664.330    4206089.435
10 0 59797   3960.00000  0   -5976728.481   -2144235.955    3066907.261
10 0 59797   4140.00000  0   -6512465.157   -2014472.146    1814806.617
10 0 59797   4320.00000  0   -6805735.977   -1800220.405     495907.087
10 0 59797   4500.00000  0   -6844001.312   -1515892.970    -841238.599
10 0 59797   4680.00000  0   -6624572.746   -1178669.865   -2147501.518
10 0 59797   4860.00000  0   -6154722.841    -807587.149   -3375043.537
10 0 59797   5040.00000  0   -5451375.640    -422562.535   -4479106.533
10 0 59797   5220.00000  0   -4540404.001     -43406.690   -5419646.637
10 0 59797   5400.00000  0   -3455582.087     311125.860   -6162748.673
10 0 59797   5580.00000  0   -2237255.524     624199.759   -6681776.359
10 0 59797   5760.00000  0    -930802.325     881640.183   -6958237.873
10 0 59797   5940.00000  0     415054.814    1072528.649   -6982363.248
10 0 59797   6120.00000  0    1750025.457    1189636.657   -6753395.988
10 0 59797   6300.00000  0    3024079.408    1229687.090   -6279608.582
10 0 59797   6480.00000  0    4189276.513    1193437.291   -5578027.160
10 0 59797   6660.00000  0    5201539.877    1085580.033   -4673875.101
10 0 59797   6840.00000  0    6022326.673     914467.093   -3599741.722
10 0 59797   7020.00000  0    6620132.586     691662.422   -2394478.912
10 0 59797   7200.00000  0    6971765.398     431340.160   -1101850.114
10 0 59797   7380.00000  0    7063320.694     149551.107     231038.197
10 0 59797   7560.00000  0    6890796.687    -136608.002    1555462.265
10 0 59797   7740.00000  0    6460313.233    -409882.970    2822894.753
10 0 59797   7920.00000  0    5787909.090    -653762.342    3986829.582
10 0 59797   8100.00000  0    4898925.276    -853340.022    5004527.308
10 0 59797   8280.00000  0    3827012.077    -996096.551    5838609.890
10 0 59797   8460.00000  0    2612805.253   -1072557.137    6458438.457
10 0 59797   8640.00000  0    1302342.753   -1076797.665    6841228.062
10 0 59797   8820.00000  0     -54713.180   -1006778.373    6972871.446
99
